{"type":"FeatureCollection","features":[{"type":"Feature","properties":{"route":"I-75","class":"interstate"},"geometry":{"type":"LineString","coordinates":[[-84.3881,33.73903],[-84.40372,33.69736],[-84.39678,33.68346],[-84.39504,33.66436],[-84.40025,33.62789],[-84.38636,33.59663],[-84.37767,33.58795],[-84.30127,33.55148],[-84.25959,33.52369],[-84.24048,33.50286],[-84.20402,33.44034],[-84.15539,33.39692],[-84.13976,33.37087],[-84.11371,33.29794],[-84.08593,33.25626],[-84.06335,33.19374],[-84.01125,33.11039],[-83.92616,33.03571],[-83.84975,33.00098],[-83.78202,32.9402],[-83.73166,32.91589],[-83.67783,32.8499],[-83.65699,32.81169],[-83.66915,32.79259],[-83.69867,32.77175],[-83.72645,32.71791],[-83.7334,32.70055],[-83.74382,32.64151],[-83.74208,32.50779],[-83.76118,32.39664],[-83.76639,32.34107],[-83.76118,32.28724],[-83.74035,32.24383],[-83.75945,32.10837],[-83.75598,31.95729],[-83.73513,31.88609],[-83.71082,31.82531],[-83.66046,31.74021],[-83.58231,31.63254],[-83.57363,31.60997],[-83.51806,31.52835],[-83.51112,31.5023],[-83.53022,31.45194]]}},{"type":"Feature","properties":{"route":"I-20","class":"interstate"},"geometry":{"type":"LineString","coordinates":[[-84.242,33.71617],[-84.23875,33.71646],[-84.16928,33.70256],[-84.11545,33.70604],[-84.07725,33.69388],[-84.05814,33.67304],[-84.01994,33.66089],[-83.97826,33.63484],[-83.88969,33.60879],[-83.78897,33.61574],[-83.69867,33.61226],[-83.45728,33.55148],[-83.36003,33.54974],[-83.29057,33.53064],[-83.16553,33.54453],[-83.03702,33.54974],[-82.97798,33.53238],[-82.95888,33.53064],[-82.92936,33.53411],[-82.81648,33.50633],[-82.75917,33.49938],[-82.69318,33.48549],[-82.65845,33.48723],[-82.50215,33.51328]]}},{"type":"Feature","properties":{"route":"I-85","class":"interstate"},"geometry":{"type":"LineString","coordinates":[[-84.48534,33.61921],[-84.48882,33.60358],[-84.52008,33.57927],[-84.55481,33.55843],[-84.61385,33.52891],[-84.63295,33.51154],[-84.68158,33.45076],[-84.73194,33.41255],[-84.74583,33.39692],[-84.76667,33.33614],[-84.79099,33.29967],[-84.8014,33.27884],[-84.80835,33.23368],[-84.8153,33.21805],[-84.8674,33.17117],[-84.91255,33.09302],[-84.9438,33.06176]]}},{"type":"Feature","properties":{"route":"I-16","class":"interstate"},"geometry":{"type":"LineString","coordinates":[[-83.67783,32.8499],[-83.65004,32.85511],[-83.62226,32.8499],[-83.55974,32.79259],[-83.52327,32.70923],[-83.51806,32.70055],[-83.49201,32.68492],[-83.32183,32.6033],[-83.17248,32.55468],[-83.10475,32.52168],[-82.93457,32.49042],[-82.81648,32.47306],[-82.70186,32.43659],[-82.65497,32.44701],[-82.55946,32.43138],[-82.457,32.42964],[-82.34065,32.41228],[-82.31634,32.40533],[-82.30071,32.39317],[-82.2625,32.38623],[-82.16699,32.37407],[-82.03327,32.36712],[-81.98812,32.35323],[-81.87351,32.30634]]}},{"type":"Feature","properties":{"route":"US-80","class":"us"},"geometry":{"type":"LineString","coordinates":[[-83.65699,32.81169],[-83.71256,32.82385],[-83.76813,32.80648],[-83.7855,32.80822],[-83.8046,32.80474],[-83.82197,32.80822],[-83.90359,32.79085],[-83.92269,32.78391],[-83.99389,32.72486],[-84.01299,32.71965],[-84.04599,32.7266],[-84.0703,32.7457],[-84.1224,32.75959],[-84.20749,32.74744],[-84.22486,32.73528],[-84.23528,32.71271],[-84.2509,32.71791],[-84.28564,32.71444],[-84.336,32.71965],[-84.43846,32.69708],[-84.53223,32.68839],[-84.53744,32.67624],[-84.53918,32.63629],[-84.55307,32.59809],[-84.5496,32.58246],[-84.59301,32.57725],[-84.60517,32.56509],[-84.63469,32.56509],[-84.66421,32.55468],[-84.70416,32.54947],[-84.80661,32.55468],[-84.82051,32.54599],[-84.86045,32.53731],[-84.94207,32.54773],[-84.95817,32.53763]]}},{"type":"Feature","properties":{"route":"US-80","class":"us"},"geometry":{"type":"LineString","coordinates":[[-81.85293,32.52158],[-81.88283,32.5156],[-81.91722,32.52457],[-81.93516,32.53952],[-82.07121,32.55895],[-82.11158,32.57241],[-82.20726,32.59484],[-82.2252,32.60381],[-82.29995,32.60829],[-82.35676,32.58736],[-82.37321,32.58437],[-82.53318,32.54699],[-82.57205,32.54849],[-82.58551,32.53204],[-82.61391,32.53204],[-82.66026,32.54998],[-82.69166,32.55447],[-82.7395,32.55447],[-82.76492,32.56942],[-82.78584,32.57091],[-82.85611,32.54998],[-82.87106,32.54849],[-82.87106,32.54849],[-82.88153,32.54849],[-82.90694,32.53952],[-82.90694,32.53952],[-82.92339,32.53503],[-82.95927,32.54251],[-82.97422,32.54998],[-83.00861,32.54998],[-83.04,32.54101],[-83.10429,32.544],[-83.14765,32.55447],[-83.15363,32.55895],[-83.19848,32.5739],[-83.21941,32.58437],[-83.23885,32.60081],[-83.28071,32.61277],[-83.3121,32.63371],[-83.31659,32.65912],[-83.34051,32.68304],[-83.35546,32.69052],[-83.3734,32.69201],[-83.38985,32.71593],[-83.41676,32.72341],[-83.42722,32.74583],[-83.44068,32.74882],[-83.44516,32.75929],[-83.48104,32.76677],[-83.49749,32.78022],[-83.49749,32.79966],[-83.51095,32.80713],[-83.55281,32.84152],[-83.57523,32.84152]]}},{"type":"Feature","properties":{"route":"GA-520","class":"state"},"geometry":{"type":"LineString","coordinates":[[-84.76335,32.28824],[-84.75625,32.27856],[-84.71805,32.2473],[-84.70068,32.19346],[-84.70763,32.16915],[-84.69026,32.14831],[-84.66769,32.08753],[-84.67811,32.04064],[-84.65379,32.00765],[-84.51487,31.89651],[-84.4454,31.79405],[-84.4454,31.76452],[-84.43883,31.7637]]}},{"type":"Feature","properties":{"route":"I-285","class":"interstate"},"geometry":{"type":"LineString","coordinates":[[-84.45582,33.89706],[-84.43498,33.91443],[-84.39678,33.91964],[-84.31516,33.91964],[-84.28564,33.91443],[-84.2509,33.86407],[-84.2509,33.83802],[-84.25959,33.8085],[-84.24222,33.78245],[-84.23006,33.75293],[-84.23354,33.72167],[-84.26306,33.69562],[-84.30648,33.68867],[-84.35857,33.65741],[-84.3881,33.63136],[-84.43846,33.61921],[-84.48708,33.61921],[-84.48534,33.61921],[-84.49576,33.65568],[-84.49055,33.69388],[-84.4975,33.73382],[-84.49055,33.76335]]}},{"type":"Feature","properties":{"route":"I-675","class":"interstate"},"geometry":{"type":"LineString","coordinates":[[-84.336,33.67131],[-84.30648,33.64526],[-84.28911,33.61574],[-84.27695,33.58448],[-84.26827,33.53411]]}},{"type":"Feature","properties":{"route":"I-475","class":"interstate"},"geometry":{"type":"LineString","coordinates":[[-83.81849,32.96798],[-83.8046,32.91241],[-83.78029,32.88636],[-83.74903,32.87421],[-83.73687,32.84469],[-83.71082,32.75438]]}},{"type":"Feature","properties":{"route":"US-129","class":"us"},"geometry":{"type":"LineString","coordinates":[[-83.33603,32.40197],[-83.38835,32.35862],[-83.41526,32.32572],[-83.4347,32.29283],[-83.45264,32.28237],[-83.45264,32.28237],[-83.4631,32.28237],[-83.4631,32.28237],[-83.47207,32.28386],[-83.49899,32.30479],[-83.49899,32.30479],[-83.5244,32.3332],[-83.54533,32.37357],[-83.56477,32.39898],[-83.57523,32.4244],[-83.59467,32.44832],[-83.6141,32.46476],[-83.6141,32.48121],[-83.59317,32.52606],[-83.59766,32.54849],[-83.59766,32.54849],[-83.59766,32.56194],[-83.58719,32.58736],[-83.59915,32.62025],[-83.59915,32.62025],[-83.60962,32.65165],[-83.63205,32.68304]]}},{"type":"Feature","properties":{"route":"US-129","class":"us"},"geometry":{"type":"LineString","coordinates":[[-83.23735,31.3958],[-83.24782,31.4257],[-83.24184,31.43467],[-83.23735,31.47504],[-83.23885,31.51092],[-83.2538,31.54082],[-83.24931,31.63053],[-83.24184,31.65594],[-83.23436,31.66491],[-83.23735,31.68136],[-83.2523,31.70229],[-83.2538,31.72322],[-83.24632,31.73069],[-83.24184,31.80246],[-83.22988,31.8204],[-83.20745,31.83684],[-83.23287,31.87422],[-83.24184,31.89963],[-83.26875,31.92954],[-83.28669,31.96243],[-83.30612,31.98635],[-83.30762,31.99681],[-83.32705,32.00728],[-83.35695,32.03718],[-83.39583,32.09698],[-83.41227,32.13137],[-83.42274,32.14632],[-83.43171,32.17473],[-83.45413,32.20313],[-83.46908,32.22556],[-83.47357,32.25396],[-83.46609,32.28237]]}},{"type":"Feature","properties":{"route":"US-129","class":"us"},"geometry":{"type":"LineString","coordinates":[[-83.62756,32.8475],[-83.6141,32.86245],[-83.60812,32.87889],[-83.59018,32.90132],[-83.59018,32.92524],[-83.57972,32.94318],[-83.58121,32.9671],[-83.57673,32.98056],[-83.56178,32.99551],[-83.53487,33.00896],[-83.53487,33.00896],[-83.50646,33.05083],[-83.49001,33.06578],[-83.48404,33.07774],[-83.48703,33.09717],[-83.47357,33.12707],[-83.46011,33.15099],[-83.44367,33.16146],[-83.4332,33.19136],[-83.4347,33.2108],[-83.43021,33.21827],[-83.4347,33.23621],[-83.42722,33.25415],[-83.38835,33.29153],[-83.40779,33.31694],[-83.40779,33.33638],[-83.39284,33.34685],[-83.37938,33.37974],[-83.36892,33.39319],[-83.37041,33.42608],[-83.37639,33.43505],[-83.40629,33.44701],[-83.41676,33.46944],[-83.43021,33.47542],[-83.43918,33.50084],[-83.44815,33.50831],[-83.44666,33.53074],[-83.46908,33.54419],[-83.47506,33.55466],[-83.47506,33.55466],[-83.47805,33.56363],[-83.44815,33.57858],[-83.44516,33.59502],[-83.44965,33.60997],[-83.44965,33.60997],[-83.45114,33.63091],[-83.44068,33.6922],[-83.44217,33.71014],[-83.43171,33.7221],[-83.42872,33.73705],[-83.4347,33.75051],[-83.4332,33.76845],[-83.42274,33.7849],[-83.42872,33.80732],[-83.43918,33.82526],[-83.42274,33.8447]]}},{"type":"Feature","properties":{"route":"US-23","class":"us"},"geometry":{"type":"LineString","coordinates":[[-83.70829,32.91926],[-83.72474,32.94916],[-83.72623,32.96561],[-83.74716,33.03289],[-83.78902,33.08372],[-83.80248,33.09568],[-83.83388,33.13305],[-83.84883,33.19286],[-83.88471,33.24518],[-83.89816,33.25266],[-83.9176,33.27658],[-83.95049,33.29003],[-83.97441,33.29452],[-83.98637,33.31694],[-84.00132,33.32592],[-84.03421,33.32442],[-84.05215,33.31994],[-84.0686,33.3289],[-84.08654,33.33339],[-84.10897,33.34535],[-84.11943,33.3603],[-84.1284,33.38422],[-84.13887,33.39618],[-84.14784,33.4515],[-84.16428,33.47841],[-84.18671,33.50383],[-84.20166,33.53821],[-84.21661,33.5427],[-84.24801,33.54569],[-84.25847,33.55316],[-84.26296,33.5711],[-84.27641,33.57708]]}},{"type":"Feature","properties":{"route":"US-23","class":"us"},"geometry":{"type":"LineString","coordinates":[[-83.56925,32.79966],[-83.56327,32.77275],[-83.56178,32.72939],[-83.5259,32.68155],[-83.52141,32.6651],[-83.50646,32.64866],[-83.4945,32.62025],[-83.4646,32.58736],[-83.45862,32.57091],[-83.44516,32.55596],[-83.43769,32.52307],[-83.4048,32.50214],[-83.38387,32.46028],[-83.37639,32.43636],[-83.32556,32.393],[-83.33154,32.37207],[-83.31808,32.3631],[-83.27174,32.30031],[-83.2538,32.28835],[-83.23735,32.24649],[-83.22689,32.22406],[-83.19549,32.2121],[-83.17904,32.19715],[-83.17904,32.19715],[-83.16409,32.17771],[-83.11476,32.1209],[-83.08934,32.10894],[-83.05047,32.10147],[-82.9802,32.10595],[-82.95778,32.10296],[-82.90994,32.07007],[-82.86807,32.05811],[-82.85462,32.04465],[-82.83817,32.03569],[-82.78734,31.99831],[-82.74697,31.98784],[-82.74548,31.97887],[-82.70511,31.94449],[-82.68269,31.93701],[-82.66325,31.90711],[-82.63484,31.90263],[-82.61092,31.89365],[-82.5885,31.86525]]}},{"type":"Feature","properties":{"route":"US-278","class":"us"},"geometry":{"type":"LineString","coordinates":[[-82.67222,33.40665],[-82.70063,33.45898],[-82.738,33.47841],[-82.78884,33.4829],[-82.79631,33.48738],[-82.82023,33.51878],[-82.84116,33.51579],[-82.86957,33.54868],[-82.90246,33.55615],[-82.9219,33.56213],[-82.93834,33.56363],[-82.9817,33.57708],[-83.00113,33.59203],[-83.00113,33.59203],[-83.01459,33.59951],[-83.05795,33.60699],[-83.08187,33.61446],[-83.1013,33.60101],[-83.12522,33.6025],[-83.17605,33.57559],[-83.20894,33.57708],[-83.23885,33.5711],[-83.27921,33.58306],[-83.30463,33.59951],[-83.3121,33.61147],[-83.33004,33.61595],[-83.35098,33.60699],[-83.38985,33.60699],[-83.4033,33.59951],[-83.42124,33.60101],[-83.44217,33.61297],[-83.44965,33.60997],[-83.47805,33.58605],[-83.49001,33.58157],[-83.56626,33.6025],[-83.60812,33.62194],[-83.67092,33.62792],[-83.68736,33.62194],[-83.70082,33.60848],[-83.74118,33.6025],[-83.76511,33.59652],[-83.77557,33.59951],[-83.79052,33.59353],[-83.81594,33.59353],[-83.84285,33.6025],[-83.87574,33.60699]]}},{"type":"Feature","properties":{"route":"US-280","class":"us"},"geometry":{"type":"LineString","coordinates":[[-81.45674,32.1837],[-81.50309,32.15977],[-81.53299,32.14034],[-81.54047,32.12987],[-81.73632,32.14333],[-81.80659,32.1523],[-81.84994,32.15379],[-81.88134,32.16127],[-81.92918,32.15977],[-81.96955,32.1508],[-82.01589,32.14931],[-82.02187,32.14781],[-82.10709,32.09698],[-82.12055,32.08353],[-82.134,32.08203],[-82.18334,32.11492],[-82.2267,32.13436],[-82.25809,32.14482],[-82.27454,32.17173],[-82.29995,32.18519],[-82.31789,32.20164],[-82.34181,32.20164],[-82.40012,32.2121],[-82.42255,32.22107],[-82.45095,32.21659],[-82.55262,32.18071],[-82.57205,32.18668],[-82.60046,32.17921],[-82.6169,32.19117],[-82.64232,32.18968],[-82.6782,32.17473],[-82.77389,32.1508],[-82.79332,32.1209],[-82.89349,32.07904],[-82.90096,32.06858],[-82.90096,32.06858],[-82.90994,32.05064],[-82.93685,32.04765],[-83.00861,32.0297],[-83.02954,32.0297],[-83.05645,32.01774],[-83.07588,32.01774],[-83.14017,32.00279],[-83.16858,32.00429],[-83.194,31.99233],[-83.20745,31.98934],[-83.25081,32.0013],[-83.30313,31.99233],[-83.32107,31.99083],[-83.34649,31.98336],[-83.36892,31.9714],[-83.40031,31.96093],[-83.42274,31.96093],[-83.44217,31.95047],[-83.50646,31.94897],[-83.51693,31.94449],[-83.55281,31.94449],[-83.59168,31.96093],[-83.62756,31.95645],[-83.6769,31.95794],[-83.69932,31.95047],[-83.71278,31.95047],[-83.75165,31.95944],[-83.75165,31.95944],[-83.77108,31.96392],[-83.7965,31.96392],[-83.80996,31.95495],[-83.87275,31.95645],[-83.90115,31.9699],[-83.9774,31.95794],[-84.02076,31.95495],[-84.08355,31.95495],[-84.09551,31.9714],[-84.10149,31.99532],[-84.11495,32.00728],[-84.14634,32.02073],[-84.18671,32.05213],[-84.18671,32.05213],[-84.20914,32.07157],[-84.24352,32.07456],[-84.24352,32.07456],[-84.2181,32.07306],[-84.25249,32.06409],[-84.25997,32.0626],[-84.25997,32.0626],[-84.2794,32.05662],[-84.32126,32.05512],[-84.3422,32.04765],[-84.37359,32.04765],[-84.39303,32.03419],[-84.47376,32.03419],[-84.48871,32.04465],[-84.52758,32.05662],[-84.55748,32.07755],[-84.59187,32.0925],[-84.62027,32.10745],[-84.63822,32.10296],[-84.65167,32.08951],[-84.66812,32.08801]]}},{"type":"Feature","properties":{"route":"US-341","class":"us"},"geometry":{"type":"LineString","coordinates":[[-84.17026,33.07475],[-84.17026,33.04335],[-84.16428,33.03887],[-84.16428,33.03887],[-84.15531,33.03887],[-84.12093,33.00597],[-84.12242,32.99401],[-84.10897,32.95664],[-84.09252,32.94468],[-84.07608,32.92524],[-84.07608,32.90879],[-84.09103,32.87441],[-84.06412,32.83703],[-84.04916,32.80713],[-84.02225,32.79069],[-84.02076,32.76378],[-84.01627,32.75331],[-84.01627,32.7249],[-84.01029,32.71892],[-84.0073,32.68155],[-84.00132,32.6666],[-83.97441,32.64417],[-83.96395,32.62025],[-83.94003,32.60081],[-83.92956,32.58736],[-83.90115,32.5739],[-83.88471,32.56194],[-83.88471,32.55297],[-83.8563,32.51261],[-83.83836,32.49766],[-83.80697,32.4842],[-83.78155,32.4857],[-83.75464,32.47972],[-83.74417,32.47224],[-83.73371,32.45878],[-83.67092,32.45131],[-83.6455,32.43038],[-83.63802,32.41244],[-83.63802,32.41244],[-83.63055,32.40496],[-83.6141,32.36908],[-83.57523,32.34815],[-83.55729,32.32423],[-83.49899,32.30479],[-83.45264,32.28237],[-83.42722,32.27788],[-83.40031,32.25994],[-83.3435,32.2121],[-83.33004,32.20463],[-83.26277,32.20164],[-83.21193,32.19715],[-83.17904,32.19715]]}},{"type":"Feature","properties":{"route":"US-41","class":"us"},"geometry":{"type":"LineString","coordinates":[[-83.647,32.84152],[-83.67092,32.8475],[-83.69783,32.86843],[-83.73072,32.88338],[-83.76211,32.89534],[-83.78902,32.92823],[-83.79052,32.94019],[-83.81594,32.95365],[-83.83986,32.94318],[-83.8578,32.95365],[-83.87275,32.97757],[-83.90115,32.99999],[-83.91909,33.02392],[-83.93404,33.03438],[-83.95199,33.03438],[-83.98488,33.0299],[-84.01179,33.04634],[-84.05365,33.05531],[-84.10299,33.05382],[-84.11345,33.05083],[-84.15531,33.05382],[-84.17026,33.07475],[-84.17026,33.07475],[-84.18073,33.10016],[-84.20914,33.11511],[-84.24801,33.148],[-84.26296,33.17342],[-84.28389,33.19585]]}},{"type":"Feature","properties":{"route":"US-41","class":"us"},"geometry":{"type":"LineString","coordinates":[[-83.63205,32.68304],[-83.65447,32.72341],[-83.65447,32.74434],[-83.66195,32.7578],[-83.65896,32.77125]]}},{"type":"Feature","properties":{"route":"GA-20","class":"state"},"geometry":{"type":"LineString","coordinates":[[-84.30183,33.38123],[-84.26595,33.38422],[-84.25249,33.39469],[-84.2211,33.40366],[-84.20016,33.41263],[-84.18073,33.42758]]}},{"type":"Feature","properties":{"route":"GA-34","class":"state"},"geometry":{"type":"LineString","coordinates":[[-84.79819,33.37974],[-84.75632,33.39618],[-84.72493,33.39917],[-84.68755,33.40814],[-84.66961,33.40665],[-84.65466,33.39917],[-84.63373,33.40216],[-84.61728,33.39618]]}},{"type":"Feature","properties":{"route":"GA-49","class":"state"},"geometry":{"type":"LineString","coordinates":[[-83.93554,32.56045],[-83.93255,32.56942],[-83.90564,32.57839],[-83.86677,32.57689],[-83.8578,32.58437],[-83.80398,32.59783],[-83.79202,32.60829],[-83.77856,32.63371],[-83.76959,32.6367],[-83.74417,32.65912]]}},{"type":"Feature","properties":{"route":"GA-49","class":"state"},"geometry":{"type":"LineString","coordinates":[[-83.6156,32.85946],[-83.5842,32.86544],[-83.56925,32.86544],[-83.53786,32.88786],[-83.51394,32.91926],[-83.493,32.94019],[-83.46161,32.94767],[-83.43171,32.96411],[-83.41975,32.97906],[-83.39134,32.9985],[-83.37639,32.9985],[-83.35994,33.00896],[-83.34201,33.01345],[-83.32855,33.02541],[-83.29566,33.04335],[-83.27024,33.06727],[-83.23436,33.07923]]}},{"type":"Feature","properties":{"route":"GA-54","class":"state"},"geometry":{"type":"LineString","coordinates":[[-84.61728,33.39618],[-84.59187,33.39768],[-84.57094,33.40515],[-84.55898,33.41562],[-84.55449,33.43206],[-84.54552,33.43954],[-84.51263,33.45],[-84.46778,33.44701],[-84.45432,33.44851]]}},{"type":"Feature","properties":{"route":"GA-74","class":"state"},"geometry":{"type":"LineString","coordinates":[[-84.59187,33.55765],[-84.57841,33.54868],[-84.57542,33.52924],[-84.57692,33.49635],[-84.58888,33.47991],[-84.59635,33.47691],[-84.59635,33.453],[-84.60682,33.43954],[-84.60084,33.40814],[-84.59037,33.39768]]}},{"type":"Feature","properties":{"route":"GA-85","class":"state"},"geometry":{"type":"LineString","coordinates":[[-84.45432,33.44851],[-84.45432,33.45598],[-84.43638,33.47841],[-84.42741,33.50084],[-84.42891,33.5128],[-84.41545,33.54718],[-84.41097,33.58157],[-84.4005,33.62642]]}},{"type":"Feature","properties":{"route":"GA-88","class":"state"},"geometry":{"type":"LineString","coordinates":[[-82.86209,32.98056],[-82.8292,32.9985],[-82.79781,33.00298],[-82.77089,32.99401],[-82.72455,33.01195],[-82.67521,33.02092],[-82.63933,33.02392],[-82.59896,33.04783],[-82.57803,33.08222],[-82.56308,33.11362],[-82.53169,33.13754],[-82.51076,33.14651],[-82.48385,33.1495],[-82.45095,33.16146],[-82.42105,33.17791],[-82.40162,33.19286]]}},{"type":"Feature","properties":{"route":"GA-934","class":"state"},"geometry":{"type":"LineString","coordinates":[[-84.10299,32.56045],[-84.09551,32.55746]]}},{"type":"Feature","properties":{"route":"GA-96","class":"state"},"geometry":{"type":"LineString","coordinates":[[-83.93554,32.56045],[-83.99235,32.544],[-84.02823,32.54101],[-84.06262,32.55746],[-84.09551,32.55746],[-84.10299,32.56045],[-84.14485,32.56643],[-84.16279,32.55895],[-84.20615,32.55447],[-84.23455,32.54251],[-84.25847,32.54998],[-84.27043,32.56643],[-84.27043,32.56643],[-84.38256,32.59633],[-84.39452,32.59334],[-84.43788,32.59484],[-84.45283,32.60081],[-84.47824,32.60679],[-84.50964,32.58437],[-84.53506,32.57689],[-84.55449,32.57839]]}},{"type":"Feature","properties":{"route":"GA-96","class":"state"},"geometry":{"type":"LineString","coordinates":[[-84.23754,32.55746],[-84.23904,32.55746]]}},{"type":"Feature","properties":{"route":"GA-16","class":"state"},"geometry":{"type":"LineString","coordinates":[[-82.96974,33.27658],[-82.96376,33.28106],[-82.87405,33.31545],[-82.85462,33.31545],[-82.83219,33.30947],[-82.81126,33.299],[-82.78884,33.29452],[-82.75146,33.29751],[-82.74099,33.30947],[-82.71707,33.35133],[-82.68119,33.38572],[-82.67222,33.40067]]}},{"type":"Feature","properties":{"route":"GA-22","class":"state"},"geometry":{"type":"LineString","coordinates":[[-82.97572,33.27508],[-83.00113,33.2706],[-83.05645,33.22425],[-83.07439,33.21678],[-83.07888,33.20183],[-83.07588,33.17043],[-83.08486,33.15548],[-83.12074,33.14352],[-83.12672,33.13903],[-83.14615,33.10166],[-83.14765,33.09269],[-83.1611,33.08073],[-83.18353,33.09119],[-83.2224,33.08222]]}},{"type":"Feature","properties":{"route":"GA-247C","class":"state"},"geometry":{"type":"LineString","coordinates":[[-83.74268,32.61277],[-83.70381,32.61427],[-83.68288,32.61876],[-83.61111,32.61876],[-83.59915,32.62025]]}},{"type":"Feature","properties":{"route":"US-19","class":"us"},"geometry":{"type":"LineString","coordinates":[[-84.18521,31.7591],[-84.25548,31.90861],[-84.26595,31.92356],[-84.25698,31.94449],[-84.25548,31.95944],[-84.24651,31.97588],[-84.25548,32.01326],[-84.251,32.06708],[-84.24352,32.07456],[-84.24352,32.07456],[-84.23904,32.08054],[-84.24502,32.11044],[-84.26296,32.11791],[-84.27043,32.15977],[-84.27043,32.15977],[-84.26894,32.18519],[-84.28389,32.21509],[-84.3093,32.22705],[-84.30332,32.26443],[-84.28987,32.28536],[-84.29435,32.32124],[-84.29435,32.32124],[-84.29286,32.36609],[-84.29734,32.38553],[-84.29734,32.41393],[-84.29286,32.42589],[-84.27791,32.44084],[-84.27791,32.44084],[-84.26744,32.46327],[-84.24352,32.50513],[-84.24352,32.53802],[-84.23754,32.55746],[-84.23904,32.55746],[-84.23605,32.58586],[-84.23754,32.61128],[-84.25249,32.62922],[-84.25399,32.67258],[-84.26445,32.69351],[-84.24053,32.70696],[-84.23156,32.72789],[-84.2181,32.73686],[-84.24352,32.7548],[-84.2495,32.78919],[-84.26744,32.79517],[-84.28688,32.8161],[-84.30781,32.82806],[-84.32126,32.85049],[-84.31827,32.85946],[-84.32575,32.88786],[-84.32575,32.88786],[-84.33322,32.91777],[-84.33771,32.95365],[-84.32874,32.9686],[-84.31678,32.97458],[-84.32575,33.00448],[-84.32575,33.0269],[-84.3422,33.03887],[-84.34519,33.09269],[-84.3407,33.11063],[-84.32575,33.12558],[-84.31229,33.15099],[-84.30183,33.1794],[-84.28389,33.19585],[-84.28389,33.19585],[-84.28837,33.21678],[-84.28837,33.21678],[-84.29136,33.23023],[-84.29136,33.23023],[-84.29585,33.25116],[-84.28987,33.26312],[-84.28987,33.26312],[-84.29136,33.27957],[-84.28837,33.32143],[-84.29435,33.33488],[-84.29585,33.37077],[-84.3108,33.39319],[-84.32724,33.45598],[-84.33472,33.46346],[-84.3422,33.49336],[-84.36312,33.51728],[-84.3721,33.57559],[-84.37808,33.58456]]}},{"type":"Feature","properties":{"route":"US-319","class":"us"},"geometry":{"type":"LineString","coordinates":[[-82.49431,32.83105],[-82.53916,32.79517],[-82.57803,32.7862],[-82.60793,32.76527],[-82.63933,32.75032],[-82.68119,32.73537],[-82.74249,32.7264],[-82.77987,32.6965],[-82.79033,32.67557],[-82.79631,32.65314],[-82.81425,32.61726],[-82.84415,32.56792],[-82.87106,32.54849],[-82.90694,32.53952],[-82.9219,32.5156],[-82.93685,32.48271],[-82.94432,32.44084],[-82.93535,32.39749],[-82.93236,32.37058],[-82.91741,32.31526],[-82.90694,32.29134],[-82.91143,32.26742],[-82.90545,32.25546],[-82.91293,32.22107],[-82.90246,32.1822],[-82.88302,32.08353],[-82.90994,32.05064],[-82.90694,32.03867],[-82.93834,31.93701],[-82.94582,31.92356],[-82.94881,31.89814],[-82.96525,31.88319],[-82.97572,31.85628],[-82.97871,31.81292],[-82.98319,31.79947],[-82.97273,31.77704]]}},{"type":"Feature","properties":{"route":"US-441","class":"us"},"geometry":{"type":"LineString","coordinates":[[-83.38387,33.299],[-83.36443,33.27508],[-83.33603,33.26761],[-83.32257,33.2407],[-83.31061,33.23023],[-83.29566,33.20482],[-83.29416,33.19136],[-83.28071,33.17193],[-83.27024,33.13305],[-83.25529,33.10913],[-83.25529,33.10913],[-83.25978,33.10465],[-83.25978,33.08521],[-83.25081,33.07475],[-83.2523,33.03587],[-83.23436,33.02392],[-83.23436,33.02392],[-83.21343,32.997],[-83.21642,32.97009],[-83.18801,32.92674],[-83.18203,32.91328],[-83.18951,32.90132],[-83.18652,32.8774],[-83.191,32.84451],[-83.16858,32.8176],[-83.17306,32.81162],[-83.17306,32.78919],[-83.16708,32.76228],[-83.15811,32.74434],[-83.14615,32.73088],[-83.14017,32.71444],[-83.11625,32.6965],[-83.1013,32.69351],[-83.06542,32.67706],[-83.04598,32.65912],[-83.02804,32.64866],[-83.01907,32.6367],[-82.99964,32.62474],[-82.97572,32.60381],[-82.94432,32.58736],[-82.92937,32.5739],[-82.92937,32.5739],[-82.91591,32.56194],[-82.91143,32.54998],[-82.91143,32.54998],[-82.90395,32.53952]]}},{"type":"Feature","properties":{"route":"GA-6","class":"state"},"geometry":{"type":"LineString","coordinates":[[-84.49768,33.65632],[-84.50516,33.65483],[-84.53506,33.65931],[-84.55001,33.67127],[-84.5515,33.68174],[-84.57243,33.68622],[-84.57692,33.6922],[-84.57841,33.73107],[-84.58738,33.74005],[-84.58888,33.752],[-84.6128,33.7849],[-84.6427,33.79686]]}},{"type":"Feature","properties":{"route":null,"class":"state"},"geometry":{"type":"LineString","coordinates":[[-83.65699,32.81169],[-83.65525,32.82385],[-83.67783,32.8499]]}}]}